[{"OBJECT_NAME":"JILIN-1 KUANFU 01","OBJECT_ID":"2020-003A","EPOCH":"2026-03-09T21:54:33.175008","MEAN_MOTION":15.10079256,"ECCENTRICITY":0.00082994,"INCLINATION":97.5094,"RA_OF_ASC_NODE":144.8213,"ARG_OF_PERICENTER":285.3859,"MEAN_ANOMALY":74.6453,"EPHEMERIS_TYPE":0,"CLASSIFICATION_TYPE":"U","NORAD_CAT_ID":45016,"ELEMENT_SET_NO":999,"REV_AT_EPOCH":34034,"BSTAR":0.00024799476,"MEAN_MOTION_DOT":3.977e-5,"MEAN_MOTION_DDOT":0},{"OBJECT_NAME":"STARLINK-5171","OBJECT_ID":"2022-136AC","EPOCH":"2026-03-09T22:17:59.975232","MEAN_MOTION":15.08832011,"ECCENTRICITY":0.00015704,"INCLINATION":53.2201,"RA_OF_ASC_NODE":318.6807,"ARG_OF_PERICENTER":80.9618,"MEAN_ANOMALY":279.1552,"EPHEMERIS_TYPE":0,"CLASSIFICATION_TYPE":"U","NORAD_CAT_ID":54077,"ELEMENT_SET_NO":999,"REV_AT_EPOCH":18722,"BSTAR":7.9970633e-5,"MEAN_MOTION_DOT":9.85e-6,"MEAN_MOTION_DDOT":0}]
